GLOBALSTAR M079 [+]     
1 37188U 10054A   22025.89052215 -.00000089  00000+0  79906-4 0  9992
2 37188  52.0053 309.3683 0000771  58.6820 329.8450 12.62268321520078
GLOBALSTAR M074 [+]     
1 37189U 10054B   22026.50273190 -.00000098  00000+0  31649-4 0  9991
2 37189  52.0030 307.0212 0000805  54.2933 116.8704 12.62266594520821
GLOBALSTAR M076 [+]     
1 37190U 10054C   22025.95400858 -.00000097  00000+0  36197-4 0  9996
2 37190  52.0044 308.7481 0000996  86.9136 350.0886 12.62255359520406
GLOBALSTAR M077 [+]     
1 37191U 10054D   22026.19445530 -.00000093  00000+0  60076-4 0  9999
2 37191  52.0059 264.5173 0000904  71.9671  77.7919 12.62266048521540
GLOBALSTAR M075 [+]     
1 37192U 10054E   22026.45887042 -.00000093  00000+0  57555-4 0  9995
2 37192  51.9970 350.1504 0000555  71.2684  82.6117 12.62268837520069
GLOBALSTAR M073 [+]     
1 37193U 10054F   22026.06133244 -.00000086  00000+0  96544-4 0  9994
2 37193  52.0046 264.2429 0000916  72.4441  73.0852 12.62269379521526
GLOBALSTAR M083 [+]     
1 37739U 11033A   22025.80772066 -.00000084  00000+0  11150-3 0  9997
2 37739  51.9829 215.4353 0001132  73.1185 299.6895 12.62266028490466
GLOBALSTAR M088 [+]     
1 37740U 11033B   22025.65135628 -.00000106  00000+0 -12760-4 0  9994
2 37740  51.9735 122.4438 0001006 101.5227  40.6847 12.62270346485988
GLOBALSTAR M091 [+]     
1 37741U 11033C   22026.44750181 -.00000110  00000+0 -34272-4 0  9997
2 37741  52.0002  81.3573 0000646 104.5124 357.3856 12.62269291487133
GLOBALSTAR M085 [+]     
1 37742U 11033D   22026.25609905 -.00000105  00000+0 -56139-5 0  9995
2 37742  51.9881  34.0742 0000363  96.2282 275.8184 12.62263505487857
GLOBALSTAR M081 [+]     
1 37743U 11033E   22026.21843135 -.00000105  00000+0 -66141-5 0  9991
2 37743  51.9972  36.2147 0000527  99.4071 339.6382 12.62267996487885
GLOBALSTAR M089 [+]     
1 37744U 11033F   22026.43176792 -.00000098  00000+0  33498-4 0  9992
2 37744  51.9953 350.0248 0000283 120.4046  29.9561 12.62263563488627
GLOBALSTAR M084 [+]     
1 38040U 11080A   22025.97074382 -.00000085  00000+0  10571-3 0  9996
2 38040  51.9978 218.0639 0001045  95.2360  58.5958 12.62270394466574
GLOBALSTAR M080 [+]     
1 38041U 11080B   22026.46803172 -.00000086  00000+0  99921-4 0  9997
2 38041  52.0031 217.7230 0001104  98.1951 275.5312 12.62266485466621
GLOBALSTAR M082 [+]     
1 38042U 11080C   22026.40542159 -.00000094  00000+0  54000-4 0  9995
2 38042  52.0059 173.2278 0000973  75.8850 313.2534 12.62268238467358
GLOBALSTAR M092 [+]     
1 38043U 11080D   22026.09109309 -.00000087  00000+0  92979-4 0  9996
2 38043  52.0070 264.4959 0000587  86.0619  74.3143 12.62270480465800
GLOBALSTAR M090 [+]     
1 38044U 11080E   22026.14597622 -.00000100  00000+0  21193-4 0  9998
2 38044  51.9868 169.4199 0001119  91.6490  79.4659 12.62266117467302
GLOBALSTAR M086 [+]     
1 38045U 11080F   22025.85253057 -.00000095  00000+0  51239-4 0  9994
2 38045  51.9879 170.7682 0002325 104.0998  53.0388 12.62268856467173
GLOBALSTAR M097 [+]     
1 39072U 13005A   22026.39872768 -.00000101  00000+0  14360-4 0  9992
2 39072  52.0052  82.3914 0000846  99.1328 260.9635 12.62261628414572
GLOBALSTAR M093 [+]     
1 39073U 13005B   22025.89722563 -.00000112  00000+0 -46140-4 0  9998
2 39073  51.9816  79.2054 0000855  95.2096 264.8868 12.62267967414380
GLOBALSTAR M094 [+]     
1 39074U 13005C   22026.21413076 -.00000102  00000+0  75891-5 0  9996
2 39074  51.9980 351.3873 0000485  69.0708 291.0211 12.62264865416058
GLOBALSTAR M096 [+]     
1 39075U 13005D   22025.59404312 -.00000112  00000+0 -44083-4 0  9990
2 39075  52.0085  40.8215 0000543  97.3458 262.7470 12.62266255414873
GLOBALSTAR M078 [+]     
1 39076U 13005E   22025.80485992 -.00000218  00000+0 -63574-3 0  9990
2 39076  51.9875 126.3716 0000462  26.9367 333.1523 12.62266305413521
GLOBALSTAR M095 [+]     
1 39077U 13005F   22025.83158099 -.00000100  00000+0  19767-4 0  9994
2 39077  51.9800 124.1049 0000775  70.2962 289.7988 12.62260145413746
